[{"OBJECT_NAME":"UM5-EOSAT","OBJECT_ID":"2024-149CR","EPOCH":"2026-03-09T17:21:09.122400","MEAN_MOTION":15.00894746,"ECCENTRICITY":0.00087192,"INCLINATION":97.6855,"RA_OF_ASC_NODE":148.6787,"ARG_OF_PERICENTER":107.8964,"MEAN_ANOMALY":252.3212,"EPHEMERIS_TYPE":0,"CLASSIFICATION_TYPE":"U","NORAD_CAT_ID":60555,"ELEMENT_SET_NO":999,"REV_AT_EPOCH":8529,"BSTAR":0.00036077282,"MEAN_MOTION_DOT":4.537e-5,"MEAN_MOTION_DDOT":0},{"OBJECT_NAME":"STARLINK-34243","OBJECT_ID":"2025-126T","EPOCH":"2026-03-09T23:22:18.779808","MEAN_MOTION":14.98323409,"ECCENTRICITY":0.00030812,"INCLINATION":70.0027,"RA_OF_ASC_NODE":33.7742,"ARG_OF_PERICENTER":266.3696,"MEAN_ANOMALY":93.7111,"EPHEMERIS_TYPE":0,"CLASSIFICATION_TYPE":"U","NORAD_CAT_ID":64361,"ELEMENT_SET_NO":999,"REV_AT_EPOCH":4072,"BSTAR":0.00039546128,"MEAN_MOTION_DOT":4.628e-5,"MEAN_MOTION_DDOT":0}]
